{
  "type": "FeatureCollection",
  "features": [
    {
      "type": "Feature",
      "properties": {
        "norad_id": 41772,
        "name": "SKYSAT-C5",
        "group": "resource",
        "lat": 56.16874164486818,
        "lon": -139.86267739565807,
        "alt_km": 452.97263014633336,
        "timestamp": "2025-12-11T15:53:39.199594+00:00",
        "meta_object_name": "SKYSAT-C5",
        "meta_object_id": "2016-058C",
        "meta_epoch": "2025-12-11T01:16:55.377408",
        "meta_mean_motion": 15.35316112,
        "meta_eccentricity": 0.00024634,
        "meta_inclination": 97.0761,
        "meta_ra_of_asc_node": 28.8717,
        "meta_arg_of_pericenter": 138.4277,
        "meta_mean_anomaly": 221.7155,
        "meta_ephemeris_type": 0,
        "meta_classification_type": "U",
        "meta_norad_cat_id": 41772,
        "meta_element_set_no": 999,
        "meta_rev_at_epoch": 51490,
        "meta_bstar": 0.0004403824,
        "meta_mean_motion_dot": 0.00015041,
        "meta_mean_motion_ddot": 0,
        "tle_line1": "1 41772U 16058C   25345.05341872  .00015041  00000+0  44038-3 0  9992",
        "tle_line2": "2 41772  97.0761  28.8717 0002463 138.4277 221.7155 15.35316112514903"
      },
      "geometry": {
        "type": "Point",
        "coordinates": [
          -139.86267739565807,
          56.16874164486818
        ]
      }
    },
    {
      "type": "Feature",
      "properties": {
        "norad_id": 41773,
        "name": "SKYSAT-C2",
        "group": "resource",
        "lat": 54.410784133810346,
        "lon": -159.82630906278152,
        "alt_km": 449.1078306407953,
        "timestamp": "2025-12-11T15:53:39.199605+00:00",
        "meta_object_name": "SKYSAT-C2",
        "meta_object_id": "2016-058D",
        "meta_epoch": "2025-12-11T07:32:29.979168",
        "meta_mean_motion": 15.37218472,
        "meta_eccentricity": 0.00043894,
        "meta_inclination": 97.0367,
        "meta_ra_of_asc_node": 9.9012,
        "meta_arg_of_pericenter": 38.1435,
        "meta_mean_anomaly": 322.012,
        "meta_ephemeris_type": 0,
        "meta_classification_type": "U",
        "meta_norad_cat_id": 41773,
        "meta_element_set_no": 999,
        "meta_rev_at_epoch": 51614,
        "meta_bstar": 0.00054339079,
        "meta_mean_motion_dot": 0.00019762,
        "meta_mean_motion_ddot": 0,
        "tle_line1": "1 41773U 16058D   25345.31423587  .00019762  00000+0  54339-3 0  9995",
        "tle_line2": "2 41773  97.0367   9.9012 0004389  38.1435 322.0120 15.37218472516142"
      },
      "geometry": {
        "type": "Point",
        "coordinates": [
          -159.82630906278152,
          54.410784133810346
        ]
      }
    },
    {
      "type": "Feature",
      "properties": {
        "norad_id": 41774,
        "name": "SKYSAT-C3",
        "group": "resource",
        "lat": -72.71188690883216,
        "lon": 42.46309681317867,
        "alt_km": 441.7921283873011,
        "timestamp": "2025-12-11T15:53:39.199615+00:00",
        "meta_object_name": "SKYSAT-C3",
        "meta_object_id": "2016-058E",
        "meta_epoch": "2025-12-11T02:13:07.880448",
        "meta_mean_motion": 15.44300229,
        "meta_eccentricity": 0.00016163,
        "meta_inclination": 96.9302,
        "meta_ra_of_asc_node": 18.9149,
        "meta_arg_of_pericenter": 106.2091,
        "meta_mean_anomaly": 253.9336,
        "meta_ephemeris_type": 0,
        "meta_classification_type": "U",
        "meta_norad_cat_id": 41774,
        "meta_element_set_no": 999,
        "meta_rev_at_epoch": 51700,
        "meta_bstar": 0.00056526339,
        "meta_mean_motion_dot": 0.00025995,
        "meta_mean_motion_ddot": 0,
        "tle_line1": "1 41774U 16058E   25345.09245232  .00025995  00000+0  56526-3 0  9995",
        "tle_line2": "2 41774  96.9302  18.9149 0001616 106.2091 253.9336 15.44300229517003"
      },
      "geometry": {
        "type": "Point",
        "coordinates": [
          42.46309681317867,
          -72.71188690883216
        ]
      }
    },
    {
      "type": "Feature",
      "properties": {
        "norad_id": 41785,
        "name": "ALSAT 1B",
        "group": "resource",
        "lat": 63.12723409882188,
        "lon": -18.157911789273502,
        "alt_km": 642.7173723561891,
        "timestamp": "2025-12-11T15:53:39.199625+00:00",
        "meta_object_name": "ALSAT 1B",
        "meta_object_id": "2016-059C",
        "meta_epoch": "2025-12-11T07:26:49.471584",
        "meta_mean_motion": 14.72072461,
        "meta_eccentricity": 0.001067,
        "meta_inclination": 97.7816,
        "meta_ra_of_asc_node": 357.1613,
        "meta_arg_of_pericenter": 107.2293,
        "meta_mean_anomaly": 253.0084,
        "meta_ephemeris_type": 0,
        "meta_classification_type": "U",
        "meta_norad_cat_id": 41785,
        "meta_element_set_no": 999,
        "meta_rev_at_epoch": 49293,
        "meta_bstar": 0.00010171515,
        "meta_mean_motion_dot": 5.93e-06,
        "meta_mean_motion_ddot": 0,
        "tle_line1": "1 41785U 16059C   25345.31029481  .00000593  00000+0  10172-3 0  9993",
        "tle_line2": "2 41785  97.7816 357.1613 0010670 107.2293 253.0084 14.72072461492932"
      },
      "geometry": {
        "type": "Point",
        "coordinates": [
          -18.157911789273502,
          63.12723409882188
        ]
      }
    },
    {
      "type": "Feature",
      "properties": {
        "norad_id": 41787,
        "name": "PATHFINDER 1",
        "group": "resource",
        "lat": 18.04784566093771,
        "lon": 171.05041361144885,
        "alt_km": 665.3136015061464,
        "timestamp": "2025-12-11T15:53:39.199636+00:00",
        "meta_object_name": "PATHFINDER 1",
        "meta_object_id": "2016-059E",
        "meta_epoch": "2025-12-11T00:25:59.733408",
        "meta_mean_motion": 14.67315928,
        "meta_eccentricity": 0.00300541,
        "meta_inclination": 97.8139,
        "meta_ra_of_asc_node": 347.8715,
        "meta_arg_of_pericenter": 86.425,
        "meta_mean_anomaly": 274.0391,
        "meta_ephemeris_type": 0,
        "meta_classification_type": "U",
        "meta_norad_cat_id": 41787,
        "meta_element_set_no": 999,
        "meta_rev_at_epoch": 49211,
        "meta_bstar": 0.00022273289,
        "meta_mean_motion_dot": 1.219e-05,
        "meta_mean_motion_ddot": 0,
        "tle_line1": "1 41787U 16059E   25345.01805247  .00001219  00000+0  22273-3 0  9995",
        "tle_line2": "2 41787  97.8139 347.8715 0030054  86.4250 274.0391 14.67315928492117"
      },
      "geometry": {
        "type": "Point",
        "coordinates": [
          171.05041361144885,
          18.04784566093771
        ]
      }
    },
    {
      "type": "Feature",
      "properties": {
        "norad_id": 41790,
        "name": "SCATSAT 1",
        "group": "resource",
        "lat": 69.67531998716602,
        "lon": -114.93016488072357,
        "alt_km": 589.557574304652,
        "timestamp": "2025-12-11T15:53:39.199646+00:00",
        "meta_object_name": "SCATSAT 1",
        "meta_object_id": "2016-059H",
        "meta_epoch": "2025-12-11T04:02:21.459552",
        "meta_mean_motion": 14.78927983,
        "meta_eccentricity": 0.00562044,
        "meta_inclination": 98.1464,
        "meta_ra_of_asc_node": 41.8188,
        "meta_arg_of_pericenter": 132.9642,
        "meta_mean_anomaly": 227.6302,
        "meta_ephemeris_type": 0,
        "meta_classification_type": "U",
        "meta_norad_cat_id": 41790,
        "meta_element_set_no": 999,
        "meta_rev_at_epoch": 7379,
        "meta_bstar": 0.00034488471,
        "meta_mean_motion_dot": 2.555e-05,
        "meta_mean_motion_ddot": 0,
        "tle_line1": "1 41790U 16059H   25345.16830393  .00002555  00000+0  34488-3 0  9990",
        "tle_line2": "2 41790  98.1464  41.8188 0056204 132.9642 227.6302 14.78927983 73795"
      },
      "geometry": {
        "type": "Point",
        "coordinates": [
          -114.93016488072357,
          69.67531998716602
        ]
      }
    },
    {
      "type": "Feature",
      "properties": {
        "norad_id": 41875,
        "name": "GOKTURK 1A",
        "group": "resource",
        "lat": -73.93015787439933,
        "lon": 28.239371557493538,
        "alt_km": 692.4140071692455,
        "timestamp": "2025-12-11T15:53:39.199656+00:00",
        "meta_object_name": "GOKTURK 1A",
        "meta_object_id": "2016-073A",
        "meta_epoch": "2025-12-11T06:31:07.048704",
        "meta_mean_motion": 14.62776468,
        "meta_eccentricity": 0.00012528,
        "meta_inclination": 98.1424,
        "meta_ra_of_asc_node": 237.6564,
        "meta_arg_of_pericenter": 77.8937,
        "meta_mean_anomaly": 282.2405,
        "meta_ephemeris_type": 0,
        "meta_classification_type": "U",
        "meta_norad_cat_id": 41875,
        "meta_element_set_no": 999,
        "meta_rev_at_epoch": 48135,
        "meta_bstar": 0.00015973996,
        "meta_mean_motion_dot": 7.68e-06,
        "meta_mean_motion_ddot": 0,
        "tle_line1": "1 41875U 16073A   25345.27160936  .00000768  00000+0  15974-3 0  9994",
        "tle_line2": "2 41875  98.1424 237.6564 0001252  77.8937 282.2405 14.62776468481354"
      },
      "geometry": {
        "type": "Point",
        "coordinates": [
          28.239371557493538,
          -73.93015787439933
        ]
      }
    }
  ]
}